start=new Date('2022-07-23T00:00:00.000Z').valueOf();
sats=[{"SITE":"AFETR","TIME_SYSTEM":"UTC","PERIAPSIS":"546.120","FILE":"3519932","APOAPSIS":"548.371","ELEMENT_SET_NO":"999","CLASSIFICATION_TYPE":"U","GP_ID":"208667174","ECCENTRICITY":"0.00016250","MEAN_ELEMENT_THEORY":"SGP4","EPOCH":"2022-07-22T20:33:57.091392","REV_AT_EPOCH":"14836","OBJECT_ID":"2019-074BG","RA_OF_ASC_NODE":"58.5095","DECAY_DATE":null,"OBJECT_NAME":"STARLINK-1062","LAUNCH_DATE":"2019-11-11","INCLINATION":"53.0571","PERIOD":"95.593","SEMIMAJOR_AXIS":"6925.381","ARG_OF_PERICENTER":"69.4617","REF_FRAME":"TEME","OBJECT_TYPE":"PAYLOAD","TLE_LINE1":"1 44767U 19074BG  22203.85691078  .00000219  00000-0  33610-4 0  9991","TLE_LINE2":"2 44767  53.0571  58.5095 0001625  69.4617 290.6546 15.06389463148369","MEAN_MOTION_DDOT":"0.0000000000000","EPHEMERIS_TYPE":"0","NORAD_CAT_ID":"44767","MEAN_MOTION_DOT":"0.00000219","CENTER_NAME":"EARTH","COUNTRY_CODE":"US","BSTAR":"0.00003361000000","RCS_SIZE":"LARGE","MEAN_ANOMALY":"290.6546","MEAN_MOTION":"15.06389463"},{"INCLINATION":"53.0547","PERIOD":"95.592","SEMIMAJOR_AXIS":"6925.352","ARG_OF_PERICENTER":"71.0472","REF_FRAME":"TEME","TLE_LINE1":"1 44768U 19074BH  22203.87995772  .00003145  00000-0  22991-3 0  9992","TLE_LINE2":"2 44768  53.0547  58.3980 0001462  71.0472 289.0675 15.06398947148374","OBJECT_TYPE":"PAYLOAD","MEAN_MOTION_DDOT":"0.0000000000000","NORAD_CAT_ID":"44768","EPHEMERIS_TYPE":"0","CENTER_NAME":"EARTH","MEAN_MOTION_DOT":"0.00003145","BSTAR":"0.00022991000000","COUNTRY_CODE":"US","MEAN_ANOMALY":"289.0675","RCS_SIZE":"LARGE","MEAN_MOTION":"15.06398947","TIME_SYSTEM":"UTC","SITE":"AFETR","PERIAPSIS":"546.204","FILE":"3519932","APOAPSIS":"548.229","GP_ID":"208668425","ECCENTRICITY":"0.00014620","ELEMENT_SET_NO":"999","CLASSIFICATION_TYPE":"U","MEAN_ELEMENT_THEORY":"SGP4","REV_AT_EPOCH":"14837","EPOCH":"2022-07-22T21:07:08.347008","OBJECT_ID":"2019-074BH","RA_OF_ASC_NODE":"58.3980","DECAY_DATE":null,"OBJECT_NAME":"STARLINK-1063","LAUNCH_DATE":"2019-11-11"},{"MEAN_ELEMENT_THEORY":"SGP4","OBJECT_ID":"2019-074BK","RA_OF_ASC_NODE":"40.5525","EPOCH":"2022-07-22T20:17:15.019008","REV_AT_EPOCH":"14857","DECAY_DATE":null,"LAUNCH_DATE":"2019-11-11","OBJECT_NAME":"STARLINK-1065","SITE":"AFETR","TIME_SYSTEM":"UTC","PERIAPSIS":"512.284","FILE":"3519932","APOAPSIS":"515.844","CLASSIFICATION_TYPE":"U","ELEMENT_SET_NO":"999","GP_ID":"208668158","ECCENTRICITY":"0.00025830","EPHEMERIS_TYPE":"0","NORAD_CAT_ID":"44770","MEAN_MOTION_DDOT":"0.0000000000000","COUNTRY_CODE":"US","BSTAR":"0.00115670000000","CENTER_NAME":"EARTH","MEAN_MOTION_DOT":"0.00023084","RCS_SIZE":"LARGE","MEAN_ANOMALY":"245.4180","MEAN_MOTION":"15.17281167","SEMIMAJOR_AXIS":"6892.199","PERIOD":"94.907","INCLINATION":"53.0017","ARG_OF_PERICENTER":"114.7082","REF_FRAME":"TEME","OBJECT_TYPE":"PAYLOAD","TLE_LINE1":"1 44770U 19074BK  22203.84531272  .00023084  00000-0  11567-2 0  9993","TLE_LINE2":"2 44770  53.0017  40.5525 0002583 114.7082 245.4180 15.17281167148570"},{"EPHEMERIS_TYPE":"0","NORAD_CAT_ID":"44771","MEAN_MOTION_DDOT":"0.0000000000000","COUNTRY_CODE":"US","BSTAR":"-0.00009842100000","MEAN_MOTION_DOT":"-0.00001748","CENTER_NAME":"EARTH","RCS_SIZE":"LARGE","MEAN_ANOMALY":"292.5149","MEAN_MOTION":"15.06412247","SEMIMAJOR_AXIS":"6925.311","INCLINATION":"53.0554","PERIOD":"95.591","REF_FRAME":"TEME","ARG_OF_PERICENTER":"67.6019","OBJECT_TYPE":"PAYLOAD","TLE_LINE1":"1 44771U 19074BL  22203.86889344 -.00001748  00000-0 -98421-4 0  9993","TLE_LINE2":"2 44771  53.0554  58.4562 0001689  67.6019 292.5149 15.06412247148366","MEAN_ELEMENT_THEORY":"SGP4","RA_OF_ASC_NODE":"58.4562","OBJECT_ID":"2019-074BL","EPOCH":"2022-07-22T20:51:12.393216","REV_AT_EPOCH":"14836","DECAY_DATE":null,"LAUNCH_DATE":"2019-11-11","OBJECT_NAME":"STARLINK-1067","SITE":"AFETR","TIME_SYSTEM":"UTC","PERIAPSIS":"546.006","APOAPSIS":"548.346","FILE":"3519932","CLASSIFICATION_TYPE":"U","ELEMENT_SET_NO":"999","GP_ID":"208667425","ECCENTRICITY":"0.00016890"},{"TIME_SYSTEM":"UTC","SITE":"AFETR","PERIAPSIS":"546.075","FILE":"3519835","APOAPSIS":"548.402","ECCENTRICITY":"0.00016800","GP_ID":"208646287","CLASSIFICATION_TYPE":"U","ELEMENT_SET_NO":"999","MEAN_ELEMENT_THEORY":"SGP4","RA_OF_ASC_NODE":"39.9948","OBJECT_ID":"2019-074BM","EPOCH":"2022-07-22T12:40:15.377664","REV_AT_EPOCH":"14875","DECAY_DATE":null,"OBJECT_NAME":"STARLINK-1068","LAUNCH_DATE":"2019-11-11","SEMIMAJOR_AXIS":"6925.373","PERIOD":"95.593","INCLINATION":"53.0547","REF_FRAME":"TEME","ARG_OF_PERICENTER":"72.7623","TLE_LINE2":"2 44772  53.0547  39.9948 0001680  72.7623 287.3549 15.06391956148752","TLE_LINE1":"1 44772U 19074BM  22203.52795576  .00002451  00000-0  18344-3 0  9995","OBJECT_TYPE":"PAYLOAD","NORAD_CAT_ID":"44772","EPHEMERIS_TYPE":"0","MEAN_MOTION_DDOT":"0.0000000000000","BSTAR":"0.00018344000000","COUNTRY_CODE":"US","CENTER_NAME":"EARTH","MEAN_MOTION_DOT":"0.00002451","MEAN_ANOMALY":"287.3549","RCS_SIZE":"LARGE","MEAN_MOTION":"15.06391956"},{"NORAD_CAT_ID":"44914","EPHEMERIS_TYPE":"0","MEAN_MOTION_DDOT":"0.0000000000000","BSTAR":"0.00007004800000","COUNTRY_CODE":"US","CENTER_NAME":"EARTH","MEAN_MOTION_DOT":"0.00000762","MEAN_ANOMALY":"304.8096","RCS_SIZE":"LARGE","MEAN_MOTION":"15.06404660","SEMIMAJOR_AXIS":"6925.334","INCLINATION":"53.0540","PERIOD":"95.592","REF_FRAME":"TEME","ARG_OF_PERICENTER":"55.3099","TLE_LINE2":"2 44914  53.0540 180.8030 0002192  55.3099 304.8096 15.06404660139933","TLE_LINE1":"1 44914U 20001A   22203.34549318  .00000762  00000-0  70048-4 0  9999","OBJECT_TYPE":"PAYLOAD","MEAN_ELEMENT_THEORY":"SGP4","RA_OF_ASC_NODE":"180.8030","OBJECT_ID":"2020-001A","EPOCH":"2022-07-22T08:17:30.610752","REV_AT_EPOCH":"13993","DECAY_DATE":null,"OBJECT_NAME":"STARLINK-1073","LAUNCH_DATE":"2020-01-07","TIME_SYSTEM":"UTC","SITE":"AFETR","PERIAPSIS":"545.681","FILE":"3519932","APOAPSIS":"548.717","ECCENTRICITY":"0.00021920","GP_ID":"208668172","CLASSIFICATION_TYPE":"U","ELEMENT_SET_NO":"999"},{"APOAPSIS":"548.251","FILE":"3519932","ELEMENT_SET_NO":"999","CLASSIFICATION_TYPE":"U","ECCENTRICITY":"0.00014700","GP_ID":"208667439","SITE":"AFETR","TIME_SYSTEM":"UTC","PERIAPSIS":"546.214","DECAY_DATE":null,"OBJECT_NAME":"STARLINK-1084","LAUNCH_DATE":"2020-01-07","MEAN_ELEMENT_THEORY":"SGP4","RA_OF_ASC_NODE":"180.9714","OBJECT_ID":"2020-001B","EPOCH":"2022-07-22T07:24:26.392320","REV_AT_EPOCH":"13993","OBJECT_TYPE":"PAYLOAD","TLE_LINE2":"2 44915  53.0554 180.9714 0001470  60.8372 299.2764 15.06393828139934","TLE_LINE1":"1 44915U 20001B   22203.30863880  .00000312  00000-0  39880-4 0  9999","SEMIMAJOR_AXIS":"6925.367","PERIOD":"95.593","INCLINATION":"53.0554","ARG_OF_PERICENTER":"60.8372","REF_FRAME":"TEME","RCS_SIZE":"LARGE","MEAN_ANOMALY":"299.2764","MEAN_MOTION":"15.06393828","EPHEMERIS_TYPE":"0","NORAD_CAT_ID":"44915","MEAN_MOTION_DDOT":"0.0000000000000","COUNTRY_CODE":"US","BSTAR":"0.00003988000000","CENTER_NAME":"EARTH","MEAN_MOTION_DOT":"0.00000312"},{"OBJECT_TYPE":"PAYLOAD","TLE_LINE2":"2 44917  53.0538 178.5709 0001619  65.2759 294.8398 15.06394924140011","TLE_LINE1":"1 44917U 20001D   22203.84310099 -.00000705  00000-0 -28413-4 0  9997","SEMIMAJOR_AXIS":"6925.364","PERIOD":"95.592","INCLINATION":"53.0538","REF_FRAME":"TEME","ARG_OF_PERICENTER":"65.2759","RCS_SIZE":"LARGE","MEAN_ANOMALY":"294.8398","MEAN_MOTION":"15.06394924","EPHEMERIS_TYPE":"0","NORAD_CAT_ID":"44917","MEAN_MOTION_DDOT":"0.0000000000000","COUNTRY_CODE":"US","BSTAR":"-0.00002841300000","CENTER_NAME":"EARTH","MEAN_MOTION_DOT":"-0.00000705","FILE":"3519932","APOAPSIS":"548.350","CLASSIFICATION_TYPE":"U","ELEMENT_SET_NO":"999","ECCENTRICITY":"0.00016190","GP_ID":"208667689","SITE":"AFETR","TIME_SYSTEM":"UTC","PERIAPSIS":"546.108","DECAY_DATE":null,"LAUNCH_DATE":"2020-01-07","OBJECT_NAME":"STARLINK-1098","MEAN_ELEMENT_THEORY":"SGP4","OBJECT_ID":"2020-001D","RA_OF_ASC_NODE":"178.5709","REV_AT_EPOCH":"14001","EPOCH":"2022-07-22T20:14:03.925536"},{"DECAY_DATE":null,"OBJECT_NAME":"STARLINK-1099","LAUNCH_DATE":"2020-01-07","MEAN_ELEMENT_THEORY":"SGP4","OBJECT_ID":"2020-001E","RA_OF_ASC_NODE":"179.4229","EPOCH":"2022-07-22T15:47:19.650912","REV_AT_EPOCH":"14072","FILE":"3519932","APOAPSIS":"548.271","CLASSIFICATION_TYPE":"U","ELEMENT_SET_NO":"999","ECCENTRICITY":"0.00015250","GP_ID":"208667940","SITE":"AFETR","TIME_SYSTEM":"UTC","PERIAPSIS":"546.159","RCS_SIZE":"LARGE","MEAN_ANOMALY":"278.9179","MEAN_MOTION":"15.06399583","EPHEMERIS_TYPE":"0","NORAD_CAT_ID":"44918","MEAN_MOTION_DDOT":"0.0000000000000","COUNTRY_CODE":"US","BSTAR":"0.00005408300000","CENTER_NAME":"EARTH","MEAN_MOTION_DOT":"0.00000524","OBJECT_TYPE":"PAYLOAD","TLE_LINE1":"1 44918U 20001E   22203.65786633  .00000524  00000-0  54083-4 0  9997","TLE_LINE2":"2 44918  53.0546 179.4229 0001525  81.1982 278.9179 15.06399583140723","SEMIMAJOR_AXIS":"6925.350","INCLINATION":"53.0546","PERIOD":"95.592","REF_FRAME":"TEME","ARG_OF_PERICENTER":"81.1982"},{"MEAN_ELEMENT_THEORY":"SGP4","RA_OF_ASC_NODE":"180.8485","OBJECT_ID":"2020-001G","EPOCH":"2022-07-22T08:06:54.060480","REV_AT_EPOCH":"13993","DECAY_DATE":null,"LAUNCH_DATE":"2020-01-07","OBJECT_NAME":"STARLINK-1102","SITE":"AFETR","TIME_SYSTEM":"UTC","PERIAPSIS":"546.027","FILE":"3519932","APOAPSIS":"548.410","CLASSIFICATION_TYPE":"U","ELEMENT_SET_NO":"999","ECCENTRICITY":"0.00017200","GP_ID":"208668671","EPHEMERIS_TYPE":"0","NORAD_CAT_ID":"44920","MEAN_MOTION_DDOT":"0.0000000000000","COUNTRY_CODE":"US","BSTAR":"0.00022618000000","CENTER_NAME":"EARTH","MEAN_MOTION_DOT":"0.00003089","RCS_SIZE":"LARGE","MEAN_ANOMALY":"292.7450","MEAN_MOTION":"15.06398386","SEMIMAJOR_AXIS":"6925.354","PERIOD":"95.592","INCLINATION":"53.0544","ARG_OF_PERICENTER":"67.3721","REF_FRAME":"TEME","OBJECT_TYPE":"PAYLOAD","TLE_LINE1":"1 44920U 20001G   22203.33812570  .00003089  00000-0  22618-3 0  9992","TLE_LINE2":"2 44920  53.0544 180.8485 0001720  67.3721 292.7450 15.06398386139935"}];
